HIMAWARI-8              
1 40267U 14060A   23342.62585282 -.00000247  00000+0  00000+0 0  9994
2 40267   0.0533 122.2366 0000808 159.3534 161.5036  1.00270927 33512
